[Satellite]
VERSION=1.1
NAME=COSMOS 2475 (743)
NICKNAME=COSMOS 2475 (743)
TLE1=1 37869U 11064C   22342.59899260  .00000003  00000+0  00000+0 0  9997
TLE2=2 37869  64.7030 116.5728 0021962 250.0294 146.0222  2.13101779 86368
STATUS=0
